satname,norad_id,inclination_deg,eccentricity,mean_motion_rev_per_day,perigee_km,apogee_km,l1,l2
STARLINK-1008,44714,53.1547,0.0002495,15.32875298,465.53081051775644,468.9466530079071,1 44714U 19074B   26089.38890628  .00068272  00000+0  21125-2 0  9997,2 44714  53.1547  82.3586 0002495  83.7098 276.4188 15.32875298352044
STARLINK-1012,44718,53.1595,0.0003003,15.3203884,467.67370248951283,471.78653147997284,1 44718U 19074F   26089.38001876  .00070411  00000+0  22355-2 0  9994,2 44718  53.1595  82.5771 0003003  82.9700 277.1643 15.32038840352033
STARLINK-1017,44723,53.0471,0.000295,15.25929202,485.97112548375935,490.02214432835353,1 44723U 19074L   26089.38324174  .00057209  00000+0  21965-2 0  9995,2 44723  53.0471  75.8526 0002950  91.7609 268.3726 15.25929202352127
STARLINK-1019,44724,53.0402,0.0001306,15.88143563,306.61468899693045,308.3609742029448,1 44724U 19074M   26089.58336806  .00203647  00000+0  71450-3 0  9997,2 44724  53.0402  31.1594 0001306 189.1950 332.0590 15.88143563  5790
STARLINK-1020,44725,53.1602,0.0002195,15.31330957,470.3367441105438,473.3438841514471,1 44725U 19074N   26089.43437015  .00058575  00000+0  19063-2 0  9995,2 44725  53.1602 107.4456 0002195  75.0663 285.0582 15.31330957351682
STARLINK-1031,44736,53.0348,0.0002378,16.05220503,258.4086847107019,261.5657765947999,1 44736U 19074Z   26089.35486774  .00619041  19631-3  87009-3 0  9995,2 44736  53.0348  13.7257 0002378 146.5994 213.5188 16.05220503352992
STARLINK-1036,44741,53.047,0.0005334,15.60144888,383.62953796720194,390.84684021892645,1 44741U 19074AE  26089.58336806  .00133420  00000+0  15907-2 0  9991,2 44741  53.0470  87.0836 0005334  30.9913 294.7790 15.60144888  5810
STARLINK-1039,44744,53.059,0.0001129,15.23356582,494.94867883547795,496.50079681587795,1 44744U 19074AH  26089.29225041  .00044468  00000+0  18500-2 0  9995,2 44744  53.0590 120.2749 0001129 331.3831  28.7104 15.23356582351491
STARLINK-1042,44747,53.0451,0.0001581,15.50916407,412.97532403817513,415.12301330470837,1 44747U 19074AL  26089.02419049  .00033542  00000+0  57499-3 0  9994,2 44747  53.0451 357.1517 0001581 147.0939 213.0168 15.50916407353227
STARLINK-1043,44748,53.0508,0.0002627,15.55026918,400.29322166458496,403.85554472531567,1 44748U 19074AM  26089.42613776  .00041109  00000+0  60559-3 0  9991,2 44748  53.0508  94.3444 0002627  89.8989 270.2322 15.55026918351870
STARLINK-1046,44751,53.0524,0.0002405,15.45678878,427.74684481994063,431.02126244673855,1 44751U 19074AQ  26089.31444873  .00038907  00000+0  79824-3 0  9990,2 44751  53.0524 112.6772 0002405 285.3942  74.6799 15.45678878351608
STARLINK-1047,44752,53.0697,0.0001679,15.33027788,465.63552300237825,467.93404773790553,1 44752U 19074AR  26089.16575707  .00015013  00000+0  47453-3 0  9991,2 44752  53.0697  50.3183 0001679 320.7205  39.3674 15.33027788352484
STARLINK-1048,44753,53.0499,0.0002767,15.57315109,393.5569853165798,397.3054779759723,1 44753U 19074AS  26089.58336806  .00090509  00000+0  12098-2 0  9992,2 44753  53.0499  67.7809 0002767  79.4623 198.3513 15.57315109  5625
STARLINK-1053,44758,53.0216,0.0006208,16.13754761,232.4565653427635,240.6693768268624,1 44758U 19074AX  26089.40965719  .01111231  82227-3  89927-3 0  9997,2 44758  53.0216 336.2375 0006208 211.4157 148.6508 16.13754761353524
STARLINK-1063,44768,53.1573,0.0002924,15.31906789,468.1212059096488,472.1260687303529,1 44768U 19074BH  26089.57797722  .00061468  00000+0  19635-2 0  9991,2 44768  53.1573 122.2665 0002924  63.3665 296.7636 15.31906789351518
STARLINK-1067,44771,53.048,0.0006656,15.61210347,379.6588021659518,388.6607716486833,1 44771U 19074BL  26089.58336806  .00141080  00000+0  16123-2 0  9996,2 44771  53.0480 102.5271 0006656  44.7460 274.6423 15.61210347  5936
STARLINK-1068,44772,53.0459,0.0004633,15.66636888,365.4094596407267,371.66092609463885,1 44772U 19074BM  26089.56432066  .00076718  00000+0  71635-3 0  9995,2 44772  53.0459  77.3856 0004633  24.3121 335.8112 15.66636888352119
STARLINK-1114,44927,53.0468,0.0005036,15.5392362,401.8672086857905,408.69946965140207,1 44927U 20001P   26089.60666482  .00122356  00000+0  18425-2 0  9992,2 44927  53.0468 228.6792 0005036 208.3246 151.7490 15.53923620343349
STARLINK-1123,44930,53.149,0.0001455,15.29942532,474.9866556697216,476.9812048604281,1 44930U 20001S   26089.42276114  .00060529  00000+0  20554-2 0  9994,2 44930  53.1490 248.9507 0001455  11.0873 349.0159 15.29942532343041
STARLINK-1094,44941,53.1561,9.77e-05,15.31457325,470.7942863283697,472.13269826456417,1 44941U 20001AD  26089.64589961  .00060551  00000+0  19620-2 0  9994,2 44941  53.1561 222.1805 0000977  87.1842 272.9271 15.31457325343442
STARLINK-1122,44949,53.1592,0.0001296,15.30203189,474.31735446250514,476.0937408508571,1 44949U 20001AM  26089.54522557  .00001536  00000+0  63957-4 0  9991,2 44949  53.1592 222.7357 0001296  90.4899 269.6251 15.30203189343421
STARLINK-1080,44961,53.0499,0.0002324,15.5077292,412.88953052933994,416.04673339467536,1 44961U 20001AZ  26089.52112736  .00104721  00000+0  17716-2 0  9997,2 44961  53.0499 188.3907 0002324 211.8593 148.2275 15.50772920343908
STARLINK-1090,44968,53.1548,0.000141,15.30281476,474.0055192213704,475.9380959051023,1 44968U 20001BG  26089.51914906  .00054783  00000+0  18435-2 0  9993,2 44968  53.1548 209.7638 0001410   2.5910 357.5098 15.30281476343607
STARLINK-1132,45044,53.1556,0.000428,15.45881083,425.8770489004037,431.7037787666459,1 45044U 20006A   26089.55801589  .00089959  00000+0  18094-2 0  9994,2 45044  53.1556 154.8858 0004280 320.7317  39.3380 15.45881083340152
STARLINK-1131,45047,53.1589,0.0001519,15.30350655,473.7243217922269,475.8062335041768,1 45047U 20006D   26089.56658400  .00031273  00000+0  10586-2 0  9994,2 45047  53.1589 184.0079 0001519  59.4041 300.7110 15.30350655339742
STARLINK-1134,45048,53.0316,0.0005454,15.46054246,424.56991831220057,431.9943603093607,1 45048U 20006E   26089.45424281  .00044801  00000+0  90510-3 0  9998,2 45048  53.0316 139.3630 0005454 269.5956  90.4425 15.46054246340352
STARLINK-1156,45054,53.1615,0.0001134,15.30206127,474.4196073126386,475.97394341289146,1 45054U 20006L   26089.52771715  .00002470  00000+0  95476-4 0  9993,2 45054  53.1615 184.2017 0001134  82.0830 278.0300 15.30206127339736
STARLINK-1159,45057,53.0436,0.0003758,15.89294771,301.74770254383384,306.77019133755584,1 45057U 20006P   26089.58336806  .00298825  00000+0  97785-3 0  9995,2 45057  53.0436 129.0862 0003758  31.6814 101.0347 15.89294771  5967
STARLINK-1166,45060,53.0504,0.0002054,15.48575558,419.4957020657748,422.2887432704465,1 45060U 20006S   26089.57380605  .00088235  00000+0  16175-2 0  9999,2 45060  53.0504 172.9360 0002054 306.3668  53.7150 15.48575558339891
STARLINK-1169,45061,53.1576,0.0002235,15.31350015,470.2525237662139,473.31443822121855,1 45061U 20006T   26089.55578244  .00028739  00000+0  94449-3 0  9990,2 45061  53.1576 184.0198 0002235  34.4272 325.6874 15.31350015339745
STARLINK-1171,45062,53.0439,0.000393,15.66041069,367.59420432571005,372.89843361442036,1 45062U 20006U   26089.53138632  .00065978  00000+0  63263-3 0  9998,2 45062  53.0439 147.1927 0003930  33.8252 326.3013 15.66041069340252
STARLINK-1133,45064,53.1597,0.00012,15.30189082,474.425262632918,476.07007495342714,1 45064U 20006W   26089.43555708  .00000626  00000+0  33281-4 0  9993,2 45064  53.1597 161.4369 0001200  82.5726 277.5412 15.30189082340051
STARLINK-1167,45071,53.1601,0.0002409,15.30864173,471.58219061838827,474.88318053289913,1 45071U 20006AD  26089.59659009  .00040449  00000+0  13425-2 0  9990,2 45071  53.1601 160.7644 0002409  47.6395 312.4809 15.30864173340071
STARLINK-1168,45072,53.1604,0.0001352,15.30225189,474.21329760580284,476.066423668919,1 45072U 20006AE  26089.61254553  .00006733  00000+0  23905-3 0  9992,2 45072  53.1604 160.8245 0001352  87.5727 272.5429 15.30225189340073
STARLINK-1172,45074,53.1572,0.0002229,15.31934178,468.5155526183544,471.56847082177865,1 45074U 20006AG  26089.46743191  .00057836  00000+0  18475-2 0  9993,2 45074  53.1572 161.1978 0002229  35.4178 324.6971 15.31934178340057
STARLINK-1153,45080,53.1598,0.0003364,15.30995623,470.5358425591785,475.14518022884386,1 45080U 20006AN  26089.51547428  .00065761  00000+0  21588-2 0  9996,2 45080  53.1598 161.0641 0003364  31.0252 329.0947 15.30995623340068
STARLINK-1151,45081,53.0518,0.0004168,15.68083509,361.5748845045209,367.1954509835514,1 45081U 20006AP  26089.43198111  .00075071  00000+0  66136-3 0  9993,2 45081  53.0518 137.7442 0004168  43.3522 316.7821 15.68083509340378
STARLINK-1185,45087,53.1617,0.0001273,15.38791582,448.8124043418011,450.55076695370644,1 45087U 20006AV  26089.58336806  .00085100  00000+0  21719-2 0  9991,2 45087  53.1617 144.7713 0001273  71.7366  58.7369 15.38791582  5854
STARLINK-1183,45088,53.159,0.0001251,15.30186384,474.39836521263624,476.1130840723408,1 45088U 20006AW  26089.45759249  .00000472  00000+0  28087-4 0  9994,2 45088  53.1590 146.1166 0001251  91.8323 268.2821 15.30186384340263
STARLINK-1152,45096,53.0375,0.000301,15.40996613,441.11347920370554,445.21990402605843,1 45096U 20006BE  26089.30284636  .00068064  00000+0  16209-2 0  9992,2 45096  53.0375 109.0552 0003010 339.2736  20.8145 15.40996613340762
STARLINK-1184,45098,53.0524,0.000262,15.11281643,530.4797808785961,534.1008447905215,1 45098U 20006BG  26089.57099510  .00031596  00000+0  18649-2 0  9998,2 45098  53.0524 151.0410 0002620 193.1484 166.9439 15.11281643340196
STARLINK-1193,45100,53.0505,0.0005898,15.59131343,386.1779038491777,394.1617986108877,1 45100U 20006BJ  26089.37352248  .00045526  00000+0  57443-3 0  9994,2 45100  53.0505 130.0227 0005898  38.9645 321.1791 15.59131343340477
STARLINK-1143,45179,53.0439,0.0004036,15.68204967,361.315881414027,366.75816428527105,1 45179U 20012B   26089.58336806  .00161444  00000+0  13949-2 0  9992,2 45179  53.0439 227.3029 0004036 205.7233 224.4109 15.68204967  5849
